[{"OBJECT_NAME":"TEVEL2-3","OBJECT_ID":"2025-052J","EPOCH":"2026-03-02T15:33:38.088864","MEAN_MOTION":15.3003047,"ECCENTRICITY":0.0004297,"INCLINATION":97.4019,"RA_OF_ASC_NODE":317.8059,"ARG_OF_PERICENTER":119.8285,"MEAN_ANOMALY":240.3383,"EPHEMERIS_TYPE":0,"CLASSIFICATION_TYPE":"U","NORAD_CAT_ID":63218,"ELEMENT_SET_NO":999,"REV_AT_EPOCH":5378,"BSTAR":0.00076198,"MEAN_MOTION_DOT":0.00022118,"MEAN_MOTION_DDOT":0},{"OBJECT_NAME":"TEVEL2-2","OBJECT_ID":"2025-052K","EPOCH":"2026-03-02T10:55:19.144416","MEAN_MOTION":15.29988876,"ECCENTRICITY":0.00042359,"INCLINATION":97.4017,"RA_OF_ASC_NODE":317.6037,"ARG_OF_PERICENTER":120.2136,"MEAN_ANOMALY":239.9524,"EPHEMERIS_TYPE":0,"CLASSIFICATION_TYPE":"U","NORAD_CAT_ID":63219,"ELEMENT_SET_NO":999,"REV_AT_EPOCH":5375,"BSTAR":0.00079209034,"MEAN_MOTION_DOT":0.00022969,"MEAN_MOTION_DDOT":0},{"OBJECT_NAME":"TEVEL2-9","OBJECT_ID":"2025-052AD","EPOCH":"2026-03-02T16:44:09.343968","MEAN_MOTION":15.28311423,"ECCENTRICITY":0.0007313,"INCLINATION":97.4078,"RA_OF_ASC_NODE":317.4266,"ARG_OF_PERICENTER":144.2958,"MEAN_ANOMALY":215.8772,"EPHEMERIS_TYPE":0,"CLASSIFICATION_TYPE":"U","NORAD_CAT_ID":63237,"ELEMENT_SET_NO":999,"REV_AT_EPOCH":5374,"BSTAR":0.00072566,"MEAN_MOTION_DOT":0.00019983,"MEAN_MOTION_DDOT":0},{"OBJECT_NAME":"TEVEL2-7","OBJECT_ID":"2025-052AE","EPOCH":"2026-03-02T06:17:40.888320","MEAN_MOTION":15.28082137,"ECCENTRICITY":0.00074531,"INCLINATION":97.4081,"RA_OF_ASC_NODE":316.9483,"ARG_OF_PERICENTER":146.3242,"MEAN_ANOMALY":213.8472,"EPHEMERIS_TYPE":0,"CLASSIFICATION_TYPE":"U","NORAD_CAT_ID":63238,"ELEMENT_SET_NO":999,"REV_AT_EPOCH":5367,"BSTAR":0.00074740617,"MEAN_MOTION_DOT":0.00020443,"MEAN_MOTION_DDOT":0},{"OBJECT_NAME":"TEVEL2-8","OBJECT_ID":"2025-052AF","EPOCH":"2026-03-02T15:53:25.327680","MEAN_MOTION":15.28075546,"ECCENTRICITY":0.0007368,"INCLINATION":97.4078,"RA_OF_ASC_NODE":317.3269,"ARG_OF_PERICENTER":145.357,"MEAN_ANOMALY":214.8151,"EPHEMERIS_TYPE":0,"CLASSIFICATION_TYPE":"U","NORAD_CAT_ID":63239,"ELEMENT_SET_NO":999,"REV_AT_EPOCH":5373,"BSTAR":0.00073648,"MEAN_MOTION_DOT":0.00020138,"MEAN_MOTION_DDOT":0},{"OBJECT_NAME":"HADES-ICM","OBJECT_ID":"2025-052BN","EPOCH":"2026-03-02T16:28:55.726176","MEAN_MOTION":15.5462952,"ECCENTRICITY":0.0008264,"INCLINATION":97.3975,"RA_OF_ASC_NODE":321.8901,"ARG_OF_PERICENTER":124.6306,"MEAN_ANOMALY":235.5728,"EPHEMERIS_TYPE":0,"CLASSIFICATION_TYPE":"U","NORAD_CAT_ID":63492,"ELEMENT_SET_NO":999,"REV_AT_EPOCH":5405,"BSTAR":0.0020045,"MEAN_MOTION_DOT":0.00134694,"MEAN_MOTION_DDOT":0},{"OBJECT_NAME":"INNOSAT 16 (RS92S7)","OBJECT_ID":"2025-155C","EPOCH":"2026-03-02T19:45:03.659328","MEAN_MOTION":15.24047999,"ECCENTRICITY":0.0010114,"INCLINATION":97.4449,"RA_OF_ASC_NODE":29.468,"ARG_OF_PERICENTER":189.3748,"MEAN_ANOMALY":170.7302,"EPHEMERIS_TYPE":0,"CLASSIFICATION_TYPE":"U","NORAD_CAT_ID":64878,"ELEMENT_SET_NO":999,"REV_AT_EPOCH":6446,"BSTAR":0.00035638,"MEAN_MOTION_DOT":8.587e-5,"MEAN_MOTION_DDOT":0},{"OBJECT_NAME":"GEOSCAN 6 (RS92S6)","OBJECT_ID":"2025-155D","EPOCH":"2026-03-02T20:07:13.543680","MEAN_MOTION":15.27754913,"ECCENTRICITY":0.0007758,"INCLINATION":97.4448,"RA_OF_ASC_NODE":30.228,"ARG_OF_PERICENTER":176.9249,"MEAN_ANOMALY":183.2039,"EPHEMERIS_TYPE":0,"CLASSIFICATION_TYPE":"U","NORAD_CAT_ID":64879,"ELEMENT_SET_NO":999,"REV_AT_EPOCH":6451,"BSTAR":0.00055965,"MEAN_MOTION_DOT":0.00015127,"MEAN_MOTION_DDOT":0},{"OBJECT_NAME":"GEOSCAN 1 (RS92S1)","OBJECT_ID":"2025-155E","EPOCH":"2026-03-02T19:27:09.479232","MEAN_MOTION":15.28160063,"ECCENTRICITY":0.000764,"INCLINATION":97.4446,"RA_OF_ASC_NODE":30.2698,"ARG_OF_PERICENTER":177.0541,"MEAN_ANOMALY":183.0745,"EPHEMERIS_TYPE":0,"CLASSIFICATION_TYPE":"U","NORAD_CAT_ID":64880,"ELEMENT_SET_NO":999,"REV_AT_EPOCH":6451,"BSTAR":0.00057529,"MEAN_MOTION_DOT":0.00015746,"MEAN_MOTION_DDOT":0},{"OBJECT_NAME":"239ALFEROV (RS61S)","OBJECT_ID":"2025-155F","EPOCH":"2026-03-02T18:39:36.463968","MEAN_MOTION":15.29616588,"ECCENTRICITY":0.000733,"INCLINATION":97.4451,"RA_OF_ASC_NODE":30.4944,"ARG_OF_PERICENTER":174.3821,"MEAN_ANOMALY":185.7503,"EPHEMERIS_TYPE":0,"CLASSIFICATION_TYPE":"U","NORAD_CAT_ID":64881,"ELEMENT_SET_NO":999,"REV_AT_EPOCH":6452,"BSTAR":0.00070903,"MEAN_MOTION_DOT":0.00020321,"MEAN_MOTION_DDOT":0},{"OBJECT_NAME":"GEOSCAN 2 (RS92S2)","OBJECT_ID":"2025-155Q","EPOCH":"2026-03-02T19:46:53.930784","MEAN_MOTION":15.28463794,"ECCENTRICITY":0.0007589,"INCLINATION":97.4445,"RA_OF_ASC_NODE":30.3912,"ARG_OF_PERICENTER":162.5505,"MEAN_ANOMALY":197.5997,"EPHEMERIS_TYPE":0,"CLASSIFICATION_TYPE":"U","NORAD_CAT_ID":64890,"ELEMENT_SET_NO":999,"REV_AT_EPOCH":6452,"BSTAR":0.00054994,"MEAN_MOTION_DOT":0.00015188,"MEAN_MOTION_DDOT":0},{"OBJECT_NAME":"GEOSCAN 5 (RS92S5)","OBJECT_ID":"2025-155R","EPOCH":"2026-03-02T20:30:35.163360","MEAN_MOTION":15.29953778,"ECCENTRICITY":0.0005933,"INCLINATION":97.4445,"RA_OF_ASC_NODE":30.6669,"ARG_OF_PERICENTER":177.0771,"MEAN_ANOMALY":183.0505,"EPHEMERIS_TYPE":0,"CLASSIFICATION_TYPE":"U","NORAD_CAT_ID":64891,"ELEMENT_SET_NO":999,"REV_AT_EPOCH":6454,"BSTAR":0.00071864,"MEAN_MOTION_DOT":0.00020808,"MEAN_MOTION_DDOT":0},{"OBJECT_NAME":"GEOSCAN 4 (RS92S4)","OBJECT_ID":"2025-155S","EPOCH":"2026-03-02T20:20:16.738944","MEAN_MOTION":15.30056662,"ECCENTRICITY":0.000593,"INCLINATION":97.4449,"RA_OF_ASC_NODE":30.683,"ARG_OF_PERICENTER":177.2119,"MEAN_ANOMALY":182.9155,"EPHEMERIS_TYPE":0,"CLASSIFICATION_TYPE":"U","NORAD_CAT_ID":64892,"ELEMENT_SET_NO":999,"REV_AT_EPOCH":6454,"BSTAR":0.00074131,"MEAN_MOTION_DOT":0.00021537,"MEAN_MOTION_DDOT":0},{"OBJECT_NAME":"GEOSCAN 3 (RS92S3)","OBJECT_ID":"2025-155T","EPOCH":"2026-03-02T19:56:50.030304","MEAN_MOTION":15.31315756,"ECCENTRICITY":0.0005536,"INCLINATION":97.4441,"RA_OF_ASC_NODE":30.8449,"ARG_OF_PERICENTER":176.4398,"MEAN_ANOMALY":183.6883,"EPHEMERIS_TYPE":0,"CLASSIFICATION_TYPE":"U","NORAD_CAT_ID":64893,"ELEMENT_SET_NO":999,"REV_AT_EPOCH":6455,"BSTAR":0.00080745,"MEAN_MOTION_DOT":0.00024405,"MEAN_MOTION_DDOT":0},{"OBJECT_NAME":"INNOSAT 3 (RS92S0)","OBJECT_ID":"2025-155U","EPOCH":"2026-03-02T19:41:45.852576","MEAN_MOTION":15.36053363,"ECCENTRICITY":0.0005076,"INCLINATION":97.4411,"RA_OF_ASC_NODE":31.435,"ARG_OF_PERICENTER":165.4495,"MEAN_ANOMALY":194.6896,"EPHEMERIS_TYPE":0,"CLASSIFICATION_TYPE":"U","NORAD_CAT_ID":64894,"ELEMENT_SET_NO":999,"REV_AT_EPOCH":6459,"BSTAR":0.0011829,"MEAN_MOTION_DOT":0.00041642,"MEAN_MOTION_DDOT":0}]
