TEVEL2-3                
1 63218U 25052J   26061.64835751  .00022118  00000+0  76198-3 0  9995
2 63218  97.4019 317.8059 0004297 119.8285 240.3383 15.30030470 53780
TEVEL2-2                
1 63219U 25052K   26061.45508269  .00022969  00000+0  79209-3 0  9996
2 63219  97.4017 317.6037 0004235 120.2136 239.9524 15.29988876 53754
TEVEL2-9                
1 63237U 25052AD  26061.69733037  .00019983  00000+0  72566-3 0  9996
2 63237  97.4078 317.4266 0007313 144.2958 215.8772 15.28311423 53745
TEVEL2-7                
1 63238U 25052AE  26061.26227880  .00020443  00000+0  74741-3 0  9994
2 63238  97.4081 316.9483 0007453 146.3242 213.8472 15.28082137 53673
TEVEL2-8                
1 63239U 25052AF  26061.66209870  .00020138  00000+0  73648-3 0  9994
2 63239  97.4078 317.3269 0007368 145.3570 214.8151 15.28075546 53733
HADES-ICM               
1 63492U 25052BN  26061.68675609  .00134694  00000+0  20045-2 0  9999
2 63492  97.3975 321.8901 0008264 124.6306 235.5728 15.54629520 54057
INNOSAT 16 (RS92S7)     
1 64878U 25155C   26061.82295902  .00008587  00000+0  35638-3 0  9998
2 64878  97.4449  29.4680 0010114 189.3748 170.7302 15.24047999 64468
GEOSCAN 6 (RS92S6)      
1 64879U 25155D   26061.83835120  .00015127  00000+0  55965-3 0  9995
2 64879  97.4448  30.2280 0007758 176.9249 183.2039 15.27754913 64518
GEOSCAN 1 (RS92S1)      
1 64880U 25155E   26061.81052638  .00015746  00000+0  57529-3 0  9995
2 64880  97.4446  30.2698 0007640 177.0541 183.0745 15.28160063 64518
239ALFEROV (RS61S)      
1 64881U 25155F   26061.77750537  .00020321  00000+0  70903-3 0  9990
2 64881  97.4451  30.4944 0007330 174.3821 185.7503 15.29616588 64529
GEOSCAN 2 (RS92S2)      
1 64890U 25155Q   26061.82423531  .00015188  00000+0  54994-3 0  9994
2 64890  97.4445  30.3912 0007589 162.5505 197.5997 15.28463794 64526
GEOSCAN 5 (RS92S5)      
1 64891U 25155R   26061.85457365  .00020808  00000+0  71864-3 0  9990
2 64891  97.4445  30.6669 0005933 177.0771 183.0505 15.29953778 64540
GEOSCAN 4 (RS92S4)      
1 64892U 25155S   26061.84741596  .00021537  00000+0  74131-3 0  9992
2 64892  97.4449  30.6830 0005930 177.2119 182.9155 15.30056662 64547
GEOSCAN 3 (RS92S3)      
1 64893U 25155T   26061.83113461  .00024405  00000+0  80745-3 0  9991
2 64893  97.4441  30.8449 0005536 176.4398 183.6883 15.31315756 64550
INNOSAT 3 (RS92S0)      
1 64894U 25155U   26061.82066959  .00041642  00000+0  11829-2 0  9998
2 64894  97.4411  31.4350 0005076 165.4495 194.6896 15.36053363 64599
